NOAA 1 [-]              
1 04793U 70106A   16070.24452182 -.00000036  00000-0  57449-4 0  9992
2 04793 101.8677 130.2956 0032143  70.6237 332.0267 12.53975910 71002
NOAA 2 [-]              
1 06235U 72082A   16070.55863351 -.00000038  00000-0  41428-4 0  9990
2 06235 101.6129  38.6940 0003906 160.1095 311.2276 12.53078479985378
NOAA 3 [-]              
1 06920U 73086A   16070.56959475 -.00000049  00000-0 -35584-4 0  9999
2 06920 101.8728  44.1634 0006270 223.2674 251.8060 12.40356828917063
NOAA 4 [-]              
1 07529U 74089A   16070.56509859 -.00000049  00000-0 -29797-4 0  9995
2 07529 101.5736  43.9577 0008803 197.5335 269.2182 12.53111524889960
NOAA 5 [-]              
1 09057U 76077A   16070.56038598 -.00000057  00000-0 -10957-3 0  9995
2 09057 101.7810  62.5683 0010093  74.8183  36.1773 12.37772353790648
TIROS N [P]             
1 11060U 78096A   16070.15407564  .00000071  00000-0  56632-4 0  9998
2 11060  98.9583 111.5172 0010007 220.5544 139.4886 14.18100546147214
NOAA 6 [P]              
1 11416U 79057A   16070.53754005  .00000142  00000-0  67322-4 0  9995
2 11416  98.5366  57.7312 0010401 173.3555 186.7769 14.33321586913656
NOAA 7 [-]              
1 12553U 81059A   16070.54121204  .00000027  00000-0  35932-4 0  9997
2 12553  98.9923  39.4718 0012245 130.9247 336.4103 14.17181274793667
NOAA 8 [-]              
1 13923U 83022A   16070.61649470  .00000101  00000-0  57087-4 0  9997
2 13923  98.4807  66.8869 0016546  86.3271 273.9802 14.28508740715708
NOAA 9 [P]              
1 15427U 84123A   16070.51915440  .00000052  00000-0  48428-4 0  9997
2 15427  98.7515  15.3482 0014360 200.5801 289.8734 14.15943052612755
NOAA 10 [-]             
1 16969U 86073A   16070.60814303  .00000045  00000-0  35265-4 0  9998
2 16969  98.4741  87.3445 0011925 193.0348 275.8968 14.27956325534273
NOAA 11 [-]             
1 19531U 88089A   16070.60352400  .00000018  00000-0  31205-4 0  9990
2 19531  98.6124 140.4200 0010150 289.7388  70.2691 14.15180908417187
NOAA 12 [-]             
1 21263U 91032A   16070.58293509  .00000032  00000-0  31741-4 0  9999
2 21263  98.6054  98.0784 0013515 190.1977 169.8931 14.25803484290662
NOAA 13 [-]             
1 22739U 93050A   16070.61192063  .00000043  00000-0  46063-4 0  9992
2 22739  98.6253 132.0425 0010466  62.3253 297.8980 14.12646838163986
NOAA 14 [-]             
1 23455U 94089A   16070.50903433  .00000019  00000-0  32731-4 0  9990
2 23455  98.7280 151.1818 0010138  43.9032 316.2945 14.14070818 93303
NOAA 15 [B]             
1 25338U 98030A   16070.55017965  .00000064  00000-0  45834-4 0  9991
2 25338  98.7832  74.5037 0011686 110.6054 249.6380 14.25708772926939
NOAA 16 [-]             
1 26536U 00055A   16070.59592357  .00000018  00000-0  33674-4 0  9997
2 26536  98.9074 140.8607 0010407 190.0607 170.0359 14.13138422797436
NOAA 17 [-]             
1 27453U 02032A   16070.54774406  .00000068  00000-0  46785-4 0  9997
2 27453  98.3730  48.7291 0012769 116.0054 244.2443 14.24931045712732
NOAA 18 [B]             
1 28654U 05018A   16070.58596966  .00000056  00000-0  55985-4 0  9994
2 28654  99.1981  74.9516 0013369 292.9798  66.9962 14.12272641556817
NOAA 19 [+]             
1 33591U 09005A   16070.59576697  .00000156  00000-0  10999-3 0  9996
2 33591  99.0286  26.6237 0014667 133.6092 226.6299 14.12048997365220
NPP [+]                 
1 37849U 11061A   16071.15380505  .00000046  00000-0  42610-4 0  9999
2 37849  98.7136  10.8428 0001811  69.5902  44.9310 14.19563678226395
